{
    "type": "FeatureCollection",
    "features": [
      {
        "type": "Feature",
        "geometry": {
          "type": "LineString",
          "coordinates": [
            [99.3583, 8.8049],
            [99.3528, 8.8090],
            [99.3336, 8.8309],
            [99.2983, 9.0204],
            [99.3168, 9.1021],
            [99.3585, 9.0738],
            [99.4017, 8.9242],
            [99.3660, 8.8093],
            [99.3583, 8.8049]
          ]
        },
        "properties": {
          "color": "#8db0fe"
        }
      }
    ]
  }